[{"OBJECT_NAME":"COSMOS 2524","OBJECT_ID":"2017-076A","EPOCH":"2026-03-09T23:23:35.640384","MEAN_MOTION":13.97416908,"ECCENTRICITY":0.00095468,"INCLINATION":67.1447,"RA_OF_ASC_NODE":73.9471,"ARG_OF_PERICENTER":248.4451,"MEAN_ANOMALY":111.5616,"EPHEMERIS_TYPE":0,"CLASSIFICATION_TYPE":"U","NORAD_CAT_ID":43032,"ELEMENT_SET_NO":999,"REV_AT_EPOCH":42174,"BSTAR":0.00037957358,"MEAN_MOTION_DOT":4.59e-6,"MEAN_MOTION_DDOT":0},{"OBJECT_NAME":"THOR ABLESTAR DEB","OBJECT_ID":"1961-015BE","EPOCH":"2026-03-09T21:58:13.883808","MEAN_MOTION":13.88966668,"ECCENTRICITY":0.00457575,"INCLINATION":66.455,"RA_OF_ASC_NODE":250.5687,"ARG_OF_PERICENTER":8.524,"MEAN_ANOMALY":351.6602,"EPHEMERIS_TYPE":0,"CLASSIFICATION_TYPE":"U","NORAD_CAT_ID":210,"ELEMENT_SET_NO":999,"REV_AT_EPOCH":25161,"BSTAR":0.00062367528,"MEAN_MOTION_DOT":6.84e-6,"MEAN_MOTION_DDOT":0}]
